{
    "links": {
        "self": "http://www.neowsapp.com/rest/v1/neo/3826836?api_key=iIulBulltgU6a56xZRHN4H3l9WmuAYTsLGpBGhQ2"
    },
    "id": "3826836",
    "neo_reference_id": "3826836",
    "name": "(2018 PN23)",
    "designation": "2018 PN23",
    "nasa_jpl_url": "http://ssd.jpl.nasa.gov/sbdb.cgi?sstr=3826836",
    "absolute_magnitude_h": 24.1,
    "estimated_diameter": {
        "kilometers": {
            "estimated_diameter_min": 0.040230458,
            "estimated_diameter_max": 0.0899580388
        },
        "meters": {
            "estimated_diameter_min": 40.2304579834,
            "estimated_diameter_max": 89.9580388169
        },
        "miles": {
            "estimated_diameter_min": 0.0249980399,
            "estimated_diameter_max": 0.0558973165
        },
        "feet": {
            "estimated_diameter_min": 131.9896957704,
            "estimated_diameter_max": 295.1379320721
        }
    },
    "is_potentially_hazardous_asteroid": false,
    "close_approach_data": [
        {
            "close_approach_date": "2015-07-31",
            "close_approach_date_full": "2015-Jul-31 16:24",
            "epoch_date_close_approach": 1438359840000,
            "relative_velocity": {
                "kilometers_per_second": "3.7835723258",
                "kilometers_per_hour": "13620.8603728766",
                "miles_per_hour": "8463.4729355799"
            },
            "miss_distance": {
                "astronomical": "0.2168954682",
                "lunar": "84.3723371298",
                "kilometers": "32447100.055372734",
                "miles": "20161693.0642783692"
            },
            "orbiting_body": "Earth"
        },
        {
            "close_approach_date": "2018-07-30",
            "close_approach_date_full": "2018-Jul-30 00:26",
            "epoch_date_close_approach": 1532910360000,
            "relative_velocity": {
                "kilometers_per_second": "3.8190199831",
                "kilometers_per_hour": "13748.471939027",
                "miles_per_hour": "8542.7658001138"
            },
            "miss_distance": {
                "astronomical": "0.2102184986",
                "lunar": "81.7749959554",
                "kilometers": "31448239.625157982",
                "miles": "19541029.9734728716"
            },
            "orbiting_body": "Earth"
        },
        {
            "close_approach_date": "2021-07-28",
            "close_approach_date_full": "2021-Jul-28 08:22",
            "epoch_date_close_approach": 1627460520000,
            "relative_velocity": {
                "kilometers_per_second": "4.0407315263",
                "kilometers_per_hour": "14546.6334947046",
                "miles_per_hour": "9038.7123511957"
            },
            "miss_distance": {
                "astronomical": "0.2171410492",
                "lunar": "84.4678681388",
                "kilometers": "32483838.449885204",
                "miles": "20184521.2440716552"
            },
            "orbiting_body": "Earth"
        }
    ],
    "orbital_data": {
        "orbit_id": "2",
        "orbit_determination_date": "2018-09-11 07:07:32",
        "first_observation_date": "2018-08-13",
        "last_observation_date": "2018-09-11",
        "data_arc_in_days": 29,
        "observations_used": 16,
        "orbit_uncertainty": "8",
        "minimum_orbit_intersection": ".210051",
        "jupiter_tisserand_invariant": "3.642",
        "epoch_osculation": "2458344.5",
        "eccentricity": ".4156825825032943",
        "semi_major_axis": "2.08437953372224",
        "inclination": "5.512218117173934",
        "ascending_node_longitude": "156.7644177599987",
        "orbital_period": "1099.166863357266",
        "perihelion_distance": "1.217939266227567",
        "perihelion_argument": "146.8111219057849",
        "aphelion_distance": "2.950819801216914",
        "perihelion_time": "2458325.921850358173",
        "mean_anomaly": "6.084730257087318",
        "mean_motion": ".3275207905198538",
        "equinox": "J2000",
        "orbit_class": {
            "orbit_class_type": "AMO",
            "orbit_class_description": "Near-Earth asteroid orbits similar to that of 1221 Amor",
            "orbit_class_range": "1.017 AU < q (perihelion) < 1.3 AU"
        }
    },
    "is_sentry_object": false
}